[{"OBJECT_NAME":"SAUDICOMSAT 2","OBJECT_ID":"2004-025E","EPOCH":"2026-03-09T23:03:17.488512","MEAN_MOTION":14.49909502,"ECCENTRICITY":0.00552225,"INCLINATION":98.6687,"RA_OF_ASC_NODE":78.3866,"ARG_OF_PERICENTER":199.0256,"MEAN_ANOMALY":160.8875,"EPHEMERIS_TYPE":0,"CLASSIFICATION_TYPE":"U","NORAD_CAT_ID":28370,"ELEMENT_SET_NO":999,"REV_AT_EPOCH":14572,"BSTAR":0.00011691026,"MEAN_MOTION_DOT":4.11e-6,"MEAN_MOTION_DDOT":0},{"OBJECT_NAME":"CZ-6A DEB","OBJECT_ID":"2022-151X","EPOCH":"2026-03-09T00:36:24.882336","MEAN_MOTION":14.38360505,"ECCENTRICITY":0.00801099,"INCLINATION":98.6142,"RA_OF_ASC_NODE":92.5117,"ARG_OF_PERICENTER":328.847,"MEAN_ANOMALY":30.798,"EPHEMERIS_TYPE":0,"CLASSIFICATION_TYPE":"U","NORAD_CAT_ID":54280,"ELEMENT_SET_NO":999,"REV_AT_EPOCH":17326,"BSTAR":0.00090939394,"MEAN_MOTION_DOT":2.83e-5,"MEAN_MOTION_DDOT":0}]
